[
{"CCSDS_OMM_VERS":"2.0",
"COMMENT":"GENERATED VIA SPACE-TRACK.ORG API",
"CREATION_DATE":"2022-07-03T06:43:21",
"ORIGINATOR":"18 SPCS",
"OBJECT_NAME":"VANGUARD 1",
"OBJECT_ID":"1958-002B",
"CENTER_NAME":"EARTH",
"REF_FRAME":"TEME",
"TIME_SYSTEM":"UTC",
"MEAN_ELEMENT_THEORY":"SGP4",
"EPOCH":"2022-07-02T20:38:25.067040",
"MEAN_MOTION":"10.84969175",
"ECCENTRICITY":"0.18470450",
"INCLINATION":"34.2468",
"RA_OF_ASC_NODE":"91.9362",
"ARG_OF_PERICENTER":"106.8822",
"MEAN_ANOMALY":"274.1662",
"EPHEMERIS_TYPE":"0",
"CLASSIFICATION_TYPE":"U",
"NORAD_CAT_ID":"5",
"ELEMENT_SET_NO":"999",
"REV_AT_EPOCH":"28621",
"BSTAR":"0.00030883000000",
"MEAN_MOTION_DOT":"0.00000230",
"MEAN_MOTION_DDOT":"0.0000000000000",
"SEMIMAJOR_AXIS":"8619.001",
"PERIOD":"132.723",
"APOAPSIS":"3832.834",
"PERIAPSIS":"648.897",
"OBJECT_TYPE":"PAYLOAD",
"RCS_SIZE":"SMALL",
"COUNTRY_CODE":"US",
"LAUNCH_DATE":"1958-03-17",
"SITE":"AFETR",
"DECAY_DATE":null,
"FILE":"3506929",
"GP_ID":"207276314",
"TLE_LINE0":"0 VANGUARD 1",
"TLE_LINE1":"1 00005U 58002B   22183.86001235  .00000230  00000-0  30883-3 0  9991",
"TLE_LINE2":"2 00005  34.2468  91.9362 1847045 106.8822 274.1662 10.84969175286217"},
{"CCSDS_OMM_VERS":"2.0",
"COMMENT":"GENERATED VIA SPACE-TRACK.ORG API",
"CREATION_DATE":"2022-07-03T19:46:43",
"ORIGINATOR":"18 SPCS",
"OBJECT_NAME":"VANGUARD 1",
"OBJECT_ID":"1958-002B",
"CENTER_NAME":"EARTH",
"REF_FRAME":"TEME",
"TIME_SYSTEM":"UTC",
"MEAN_ELEMENT_THEORY":"SGP4",
"EPOCH":"2022-07-03T09:53:46.451616",
"MEAN_MOTION":"10.84969524",
"ECCENTRICITY":"0.18470630",
"INCLINATION":"34.2469",
"RA_OF_ASC_NODE":"90.2342",
"ARG_OF_PERICENTER":"109.3680",
"MEAN_ANOMALY":"271.5110",
"EPHEMERIS_TYPE":"0",
"CLASSIFICATION_TYPE":"U",
"NORAD_CAT_ID":"5",
"ELEMENT_SET_NO":"999",
"REV_AT_EPOCH":"28627",
"BSTAR":"0.00032043000000",
"MEAN_MOTION_DOT":"0.00000240",
"MEAN_MOTION_DDOT":"0.0000000000000",
"SEMIMAJOR_AXIS":"8618.999",
"PERIOD":"132.723",
"APOAPSIS":"3832.847",
"PERIAPSIS":"648.880",
"OBJECT_TYPE":"PAYLOAD",
"RCS_SIZE":"SMALL",
"COUNTRY_CODE":"US",
"LAUNCH_DATE":"1958-03-17",
"SITE":"AFETR",
"DECAY_DATE":null,
"FILE":"3507188",
"GP_ID":"207308698",
"TLE_LINE0":"0 VANGUARD 1",
"TLE_LINE1":"1 00005U 58002B   22184.41234319  .00000240  00000-0  32043-3 0  9995",
"TLE_LINE2":"2 00005  34.2469  90.2342 1847063 109.3680 271.5110 10.84969524286271"},
{"CCSDS_OMM_VERS":"2.0",
"COMMENT":"GENERATED VIA SPACE-TRACK.ORG API",
"CREATION_DATE":"2022-07-04T02:40:57",
"ORIGINATOR":"18 SPCS",
"OBJECT_NAME":"VANGUARD 1",
"OBJECT_ID":"1958-002B",
"CENTER_NAME":"EARTH",
"REF_FRAME":"TEME",
"TIME_SYSTEM":"UTC",
"MEAN_ELEMENT_THEORY":"SGP4",
"EPOCH":"2022-07-03T20:56:33.540288",
"MEAN_MOTION":"10.84969762",
"ECCENTRICITY":"0.18470790",
"INCLINATION":"34.2469",
"RA_OF_ASC_NODE":"88.8158",
"ARG_OF_PERICENTER":"111.4399",
"MEAN_ANOMALY":"269.2649",
"EPHEMERIS_TYPE":"0",
"CLASSIFICATION_TYPE":"U",
"NORAD_CAT_ID":"5",
"ELEMENT_SET_NO":"999",
"REV_AT_EPOCH":"28632",
"BSTAR":"0.00032344000000",
"MEAN_MOTION_DOT":"0.00000243",
"MEAN_MOTION_DDOT":"0.0000000000000",
"SEMIMAJOR_AXIS":"8618.997",
"PERIOD":"132.723",
"APOAPSIS":"3832.859",
"PERIAPSIS":"648.866",
"OBJECT_TYPE":"PAYLOAD",
"RCS_SIZE":"SMALL",
"COUNTRY_CODE":"US",
"LAUNCH_DATE":"1958-03-17",
"SITE":"AFETR",
"DECAY_DATE":null,
"FILE":"3507292",
"GP_ID":"207335155",
"TLE_LINE0":"0 VANGUARD 1",
"TLE_LINE1":"1 00005U 58002B   22184.87261042  .00000243  00000-0  32344-3 0  9995",
"TLE_LINE2":"2 00005  34.2469  88.8158 1847079 111.4399 269.2649 10.84969762286328"},
{"CCSDS_OMM_VERS":"2.0",
"COMMENT":"GENERATED VIA SPACE-TRACK.ORG API",
"CREATION_DATE":"2022-07-04T18:38:19",
"ORIGINATOR":"18 SPCS",
"OBJECT_NAME":"VANGUARD 1",
"OBJECT_ID":"1958-002B",
"CENTER_NAME":"EARTH",
"REF_FRAME":"TEME",
"TIME_SYSTEM":"UTC",
"MEAN_ELEMENT_THEORY":"SGP4",
"EPOCH":"2022-07-04T10:11:53.145024",
"MEAN_MOTION":"10.84970132",
"ECCENTRICITY":"0.18470920",
"INCLINATION":"34.2470",
"RA_OF_ASC_NODE":"87.1138",
"ARG_OF_PERICENTER":"113.9260",
"MEAN_ANOMALY":"266.5301",
"EPHEMERIS_TYPE":"0",
"CLASSIFICATION_TYPE":"U",
"NORAD_CAT_ID":"5",
"ELEMENT_SET_NO":"999",
"REV_AT_EPOCH":"28638",
"BSTAR":"0.00034084000000",
"MEAN_MOTION_DOT":"0.00000257",
"MEAN_MOTION_DDOT":"0.0000000000000",
"SEMIMAJOR_AXIS":"8618.995",
"PERIOD":"132.723",
"APOAPSIS":"3832.868",
"PERIAPSIS":"648.853",
"OBJECT_TYPE":"PAYLOAD",
"RCS_SIZE":"SMALL",
"COUNTRY_CODE":"US",
"LAUNCH_DATE":"1958-03-17",
"SITE":"AFETR",
"DECAY_DATE":null,
"FILE":"3507601",
"GP_ID":"207367517",
"TLE_LINE0":"0 VANGUARD 1",
"TLE_LINE1":"1 00005U 58002B   22185.42492066  .00000257  00000-0  34084-3 0  9997",
"TLE_LINE2":"2 00005  34.2470  87.1138 1847092 113.9260 266.5301 10.84970132286383"},
{"CCSDS_OMM_VERS":"2.0",
"COMMENT":"GENERATED VIA SPACE-TRACK.ORG API",
"CREATION_DATE":"2022-07-05T02:25:59",
"ORIGINATOR":"18 SPCS",
"OBJECT_NAME":"VANGUARD 1",
"OBJECT_ID":"1958-002B",
"CENTER_NAME":"EARTH",
"REF_FRAME":"TEME",
"TIME_SYSTEM":"UTC",
"MEAN_ELEMENT_THEORY":"SGP4",
"EPOCH":"2022-07-04T21:14:38.738112",
"MEAN_MOTION":"10.84970358",
"ECCENTRICITY":"0.18471060",
"INCLINATION":"34.2470",
"RA_OF_ASC_NODE":"85.6954",
"ARG_OF_PERICENTER":"115.9979",
"MEAN_ANOMALY":"264.2175",
"EPHEMERIS_TYPE":"0",
"CLASSIFICATION_TYPE":"U",
"NORAD_CAT_ID":"5",
"ELEMENT_SET_NO":"999",
"REV_AT_EPOCH":"28643",
"BSTAR":"0.00033708000000",
"MEAN_MOTION_DOT":"0.00000255",
"MEAN_MOTION_DDOT":"0.0000000000000",
"SEMIMAJOR_AXIS":"8618.994",
"PERIOD":"132.723",
"APOAPSIS":"3832.879",
"PERIAPSIS":"648.840",
"OBJECT_TYPE":"PAYLOAD",
"RCS_SIZE":"SMALL",
"COUNTRY_CODE":"US",
"LAUNCH_DATE":"1958-03-17",
"SITE":"AFETR",
"DECAY_DATE":null,
"FILE":"3507746",
"GP_ID":"207395238",
"TLE_LINE0":"0 VANGUARD 1",
"TLE_LINE1":"1 00005U 58002B   22185.88517058  .00000255  00000-0  33708-3 0  9996",
"TLE_LINE2":"2 00005  34.2470  85.6954 1847106 115.9979 264.2175 10.84970358286437"},
{"CCSDS_OMM_VERS":"2.0",
"COMMENT":"GENERATED VIA SPACE-TRACK.ORG API",
"CREATION_DATE":"2022-07-05T07:06:12",
"ORIGINATOR":"18 SPCS",
"OBJECT_NAME":"VANGUARD 1",
"OBJECT_ID":"1958-002B",
"CENTER_NAME":"EARTH",
"REF_FRAME":"TEME",
"TIME_SYSTEM":"UTC",
"MEAN_ELEMENT_THEORY":"SGP4",
"EPOCH":"2022-07-05T01:39:44.785440",
"MEAN_MOTION":"10.84970452",
"ECCENTRICITY":"0.18471140",
"INCLINATION":"34.2470",
"RA_OF_ASC_NODE":"85.1281",
"ARG_OF_PERICENTER":"116.8265",
"MEAN_ANOMALY":"263.2842",
"EPHEMERIS_TYPE":"0",
"CLASSIFICATION_TYPE":"U",
"NORAD_CAT_ID":"5",
"ELEMENT_SET_NO":"999",
"REV_AT_EPOCH":"28655",
"BSTAR":"0.00033556000000",
"MEAN_MOTION_DOT":"0.00000254",
"MEAN_MOTION_DDOT":"0.0000000000000",
"SEMIMAJOR_AXIS":"8618.994",
"PERIOD":"132.723",
"APOAPSIS":"3832.885",
"PERIAPSIS":"648.832",
"OBJECT_TYPE":"PAYLOAD",
"RCS_SIZE":"SMALL",
"COUNTRY_CODE":"US",
"LAUNCH_DATE":"1958-03-17",
"SITE":"AFETR",
"DECAY_DATE":null,
"FILE":"3507814",
"GP_ID":"207447007",
"TLE_LINE0":"0 VANGUARD 1",
"TLE_LINE1":"1     5U 58002B   22186.06926835  .00000254  00000-0  33556-3 0  9994",
"TLE_LINE2":"2     5  34.2470  85.1281 1847114 116.8265 263.2842 10.84970452286550"},
{"CCSDS_OMM_VERS":"2.0",
"COMMENT":"GENERATED VIA SPACE-TRACK.ORG API",
"CREATION_DATE":"2022-07-05T22:44:30",
"ORIGINATOR":"18 SPCS",
"OBJECT_NAME":"VANGUARD 1",
"OBJECT_ID":"1958-002B",
"CENTER_NAME":"EARTH",
"REF_FRAME":"TEME",
"TIME_SYSTEM":"UTC",
"MEAN_ELEMENT_THEORY":"SGP4",
"EPOCH":"2022-07-05T10:29:56.549184",
"MEAN_MOTION":"10.84970680",
"ECCENTRICITY":"0.18471240",
"INCLINATION":"34.2470",
"RA_OF_ASC_NODE":"83.9934",
"ARG_OF_PERICENTER":"118.4839",
"MEAN_ANOMALY":"261.4026",
"EPHEMERIS_TYPE":"0",
"CLASSIFICATION_TYPE":"U",
"NORAD_CAT_ID":"5",
"ELEMENT_SET_NO":"999",
"REV_AT_EPOCH":"28649",
"BSTAR":"0.00034274000000",
"MEAN_MOTION_DOT":"0.00000260",
"MEAN_MOTION_DDOT":"0.0000000000000",
"SEMIMAJOR_AXIS":"8618.993",
"PERIOD":"132.722",
"APOAPSIS":"3832.892",
"PERIAPSIS":"648.823",
"OBJECT_TYPE":"PAYLOAD",
"RCS_SIZE":"SMALL",
"COUNTRY_CODE":"US",
"LAUNCH_DATE":"1958-03-17",
"SITE":"AFETR",
"DECAY_DATE":null,
"FILE":"3508171",
"GP_ID":"207455076",
"TLE_LINE0":"0 VANGUARD 1",
"TLE_LINE1":"1 00005U 58002B   22186.43746006  .00000260  00000-0  34274-3 0  9990",
"TLE_LINE2":"2 00005  34.2470  83.9934 1847124 118.4839 261.4026 10.84970680286497"},
{"CCSDS_OMM_VERS":"2.0",
"COMMENT":"GENERATED VIA SPACE-TRACK.ORG API",
"CREATION_DATE":"2022-07-06T10:21:06",
"ORIGINATOR":"18 SPCS",
"OBJECT_NAME":"VANGUARD 1",
"OBJECT_ID":"1958-002B",
"CENTER_NAME":"EARTH",
"REF_FRAME":"TEME",
"TIME_SYSTEM":"UTC",
"MEAN_ELEMENT_THEORY":"SGP4",
"EPOCH":"2022-07-05T17:07:35.084928",
"MEAN_MOTION":"10.84970836",
"ECCENTRICITY":"0.18471270",
"INCLINATION":"34.2471",
"RA_OF_ASC_NODE":"83.1424",
"ARG_OF_PERICENTER":"119.7271",
"MEAN_ANOMALY":"259.9784",
"EPHEMERIS_TYPE":"0",
"CLASSIFICATION_TYPE":"U",
"NORAD_CAT_ID":"5",
"ELEMENT_SET_NO":"999",
"REV_AT_EPOCH":"28652",
"BSTAR":"0.00034476000000",
"MEAN_MOTION_DOT":"0.00000262",
"MEAN_MOTION_DDOT":"0.0000000000000",
"SEMIMAJOR_AXIS":"8618.992",
"PERIOD":"132.722",
"APOAPSIS":"3832.894",
"PERIAPSIS":"648.820",
"OBJECT_TYPE":"PAYLOAD",
"RCS_SIZE":"SMALL",
"COUNTRY_CODE":"US",
"LAUNCH_DATE":"1958-03-17",
"SITE":"AFETR",
"DECAY_DATE":null,
"FILE":"3508487",
"GP_ID":"207486504",
"TLE_LINE0":"0 VANGUARD 1",
"TLE_LINE1":"1 00005U 58002B   22186.71360052  .00000262  00000-0  34476-3 0  9990",
"TLE_LINE2":"2 00005  34.2471  83.1424 1847127 119.7271 259.9784 10.84970836286521"}]